[{"OBJECT_NAME":"FENGYUN 3C","OBJECT_ID":"2013-052A","EPOCH":"2026-03-09T23:00:17.582976","MEAN_MOTION":14.15729116,"ECCENTRICITY":0.00138136,"INCLINATION":98.4893,"RA_OF_ASC_NODE":47.4396,"ARG_OF_PERICENTER":312.3692,"MEAN_ANOMALY":47.6312,"EPHEMERIS_TYPE":0,"CLASSIFICATION_TYPE":"U","NORAD_CAT_ID":39260,"ELEMENT_SET_NO":999,"REV_AT_EPOCH":64452,"BSTAR":0.00010509622,"MEAN_MOTION_DOT":1.65e-6,"MEAN_MOTION_DDOT":0},{"OBJECT_NAME":"CZ-6A DEB","OBJECT_ID":"2022-151VQ","EPOCH":"2026-03-09T11:17:21.098976","MEAN_MOTION":14.21379791,"ECCENTRICITY":0.00417049,"INCLINATION":98.81,"RA_OF_ASC_NODE":79.0269,"ARG_OF_PERICENTER":245.0766,"MEAN_ANOMALY":114.6074,"EPHEMERIS_TYPE":0,"CLASSIFICATION_TYPE":"U","NORAD_CAT_ID":55199,"ELEMENT_SET_NO":999,"REV_AT_EPOCH":16640,"BSTAR":0.0016706743,"MEAN_MOTION_DOT":3.637e-5,"MEAN_MOTION_DDOT":0}]
